[
  {
    "Name": "ADAMS COUNTY DET CENTER",
    "City": "Natchez",
    "State": "MS",
    "Zip": "39120",
    "DETLOC": "ADAMSMS",
    "filename": "ADAMS_COUNTY_DET_CENTER.html"
  },
  {
    "Name": "ALLEN PARISH PUBLIC SAFETY COMPLEX",
    "City": "Oberlin",
    "State": "LA",
    "Zip": "70655",
    "DETLOC": "APPSCLA",
    "filename": "ALLEN_PARISH_PUBLIC_SAFETY_COMPLEX.html"
  },
  {
    "Name": "ADELANTO ICE PROCESSING CENTER",
    "City": "Adelanto",
    "State": "CA",
    "Zip": "92301",
    "DETLOC": "ADLNTCA",
    "filename": "ADELANTO_ICE_PROCESSING_CENTER.html"
  },
  {
    "Name": "ALAMANCE COUNTY DETENTION FACILITY",
    "City": "Graham",
    "State": "NC",
    "Zip": "27253",
    "DETLOC": "ALAMCNC",
    "filename": "ALAMANCE_COUNTY_DETENTION_FACILITY.html"
  },
  {
    "Name": "BAKER COUNTY SHERIFF'S OFFICE",
    "City": "Macclenny",
    "State": "FL",
    "Zip": "32063",
    "DETLOC": "BAKERFL",
    "filename": "BAKER_COUNTY_SHERIFF'S_OFFICE.html"
  },
  {
    "Name": "BALDWIN COUNTY CORRECTIONAL CENTER",
    "City": "Bay Minette",
    "State": "AL",
    "Zip": "36507",
    "DETLOC": "BALDWAL",
    "filename": "BALDWIN_COUNTY_CORRECTIONAL_CENTER.html"
  },
  {
    "Name": "SOUTH LOUISIANA DETENTION CENTER",
    "City": "Basile",
    "State": "LA",
    "Zip": "70515",
    "DETLOC": "BASILLA",
    "filename": "SOUTH_LOUISIANA_DETENTION_CENTER.html"
  },
  {
    "Name": "BLUEBONNET DETENTION FACILITY",
    "City": "Anson",
    "State": "TX",
    "Zip": "79501",
    "DETLOC": "BLBNATX",
    "filename": "BLUEBONNET_DETENTION_FACILITY.html"
  },
  {
    "Name": "BOONE COUNTY JAIL",
    "City": "Burlington",
    "State": "KY",
    "Zip": "41005",
    "DETLOC": "BOONEKY",
    "filename": "BOONE_COUNTY_JAIL.html"
  },
  {
    "Name": "GUAYNABO MDC (SAN JUAN)",
    "City": "San Juan",
    "State": "PR",
    "Zip": "00939",
    "DETLOC": "BOPGUA",
    "filename": "GUAYNABO_MDC_(SAN_JUAN).html"
  },
  {
    "Name": "HONOLULU FEDERAL DETENTION CENTER",
    "City": "Honolulu",
    "State": "HI",
    "Zip": "96819",
    "DETLOC": "BOPHON",
    "filename": "HONOLULU_FEDERAL_DETENTION_CENTER.html"
  },
  {
    "Name": "BUFFALO SPC",
    "City": "Batavia",
    "State": "NY",
    "Zip": "14020",
    "DETLOC": "BTV",
    "filename": "BUFFALO_SPC.html"
  },
  {
    "Name": "MESA VERDE ICE PROCESSING CENTER",
    "City": "Bakersfield",
    "State": "CA",
    "Zip": "93301",
    "DETLOC": "CACFMES",
    "filename": "MESA_VERDE_ICE_PROCESSING_CENTER.html"
  },
  {
    "Name": "DESERT VIEW ANNEX",
    "City": "Adelanto",
    "State": "CA",
    "Zip": "92301",
    "DETLOC": "CADESVI",
    "filename": "DESERT_VIEW_ANNEX.html"
  },
  {
    "Name": "CALHOUN COUNTY CORRECTIONAL CENTER",
    "City": "Battle Creek",
    "State": "MI",
    "Zip": "49014",
    "DETLOC": "CALHOMI",
    "filename": "CALHOUN_COUNTY_CORRECTIONAL_CENTER.html"
  },
  {
    "Name": "CAROLINE DETENTION FACILITY",
    "City": "Bowling Green",
    "State": "VA",
    "Zip": "22427",
    "DETLOC": "CARDFVA",
    "filename": "CAROLINE_DETENTION_FACILITY.html"
  },
  {
    "Name": "CASCADE COUNTY JAIL (MONTANA)",
    "City": "Great Falls",
    "State": "MT",
    "Zip": "59404",
    "DETLOC": "CASCAMT",
    "filename": "CASCADE_COUNTY_JAIL_(MONTANA).html"
  },
  {
    "Name": "COASTAL BEND DETENTION FACILITY",
    "City": "Robstown",
    "State": "TX",
    "Zip": "78380",
    "DETLOC": "CBENDTX",
    "filename": "COASTAL_BEND_DETENTION_FACILITY.html"
  },
  {
    "Name": "CCA, FLORENCE CORRECTIONAL CENTER",
    "City": "Florence",
    "State": "AZ",
    "Zip": "85232",
    "DETLOC": "CCAFLAZ",
    "filename": "CCA,_FLORENCE_CORRECTIONAL_CENTER.html"
  },
  {
    "Name": "T DON HUTTO DETENTION CENTER",
    "City": "Taylor",
    "State": "TX",
    "Zip": "76574",
    "DETLOC": "CCAHUTX",
    "filename": "T_DON_HUTTO_DETENTION_CENTER.html"
  },
  {
    "Name": "OTAY MESA DETENTION CENTER (SAN DIEGO CDF)",
    "City": "San Diego",
    "State": "CA",
    "Zip": "92158",
    "DETLOC": "CCASDCA",
    "filename": "OTAY_MESA_DETENTION_CENTER_(SAN_DIEGO_CDF).html"
  },
  {
    "Name": "CHASE COUNTY JAIL",
    "City": "Cottonwood Fall",
    "State": "KS",
    "Zip": "66845",
    "DETLOC": "CHASEKS",
    "filename": "CHASE_COUNTY_JAIL.html"
  },
  {
    "Name": "CHIPPEWA COUNTY SSM",
    "City": "Sault Sainte Marie",
    "State": "MI",
    "Zip": "49783",
    "DETLOC": "CHIPPMI",
    "filename": "CHIPPEWA_COUNTY_SSM.html"
  },
  {
    "Name": "CIBOLA COUNTY CORRECTIONAL CENTER",
    "City": "Milan",
    "State": "NM",
    "Zip": "87021",
    "DETLOC": "CIBOCNM",
    "filename": "CIBOLA_COUNTY_CORRECTIONAL_CENTER.html"
  },
  {
    "Name": "CLAY COUNTY JAIL",
    "City": "Brazil",
    "State": "IN",
    "Zip": "47834",
    "DETLOC": "CLAYCIN",
    "filename": "CLAY_COUNTY_JAIL.html"
  },
  {
    "Name": "CLINTON COUNTY CORRECTIONAL FACILITY",
    "City": "Lock Haven",
    "State": "PA",
    "Zip": "17745",
    "DETLOC": "CLINTPA",
    "filename": "CLINTON_COUNTY_CORRECTIONAL_FACILITY.html"
  },
  {
    "Name": "COBB COUNTY JAIL",
    "City": "Marietta",
    "State": "GA",
    "Zip": "30060",
    "DETLOC": "COBBJGA",
    "filename": "COBB_COUNTY_JAIL.html"
  },
  {
    "Name": "COLLIER COUNTY NAPLES JAIL CENTER",
    "City": "Naples",
    "State": "FL",
    "Zip": "34112",
    "DETLOC": "COLLIFL",
    "filename": "COLLIER_COUNTY_NAPLES_JAIL_CENTER.html"
  },
  {
    "Name": "TACOMA ICE PROCESSING CENTER (NORTHWEST DET CTR)",
    "City": "Tacoma",
    "State": "WA",
    "Zip": "98421",
    "DETLOC": "CSCNWWA",
    "filename": "TACOMA_ICE_PROCESSING_CENTER_(NORTHWEST_DET_CTR).html"
  },
  {
    "Name": "CUMBERLAND COUNTY JAIL",
    "City": "Portland",
    "State": "ME",
    "Zip": "04102",
    "DETLOC": "CUMBEME",
    "filename": "CUMBERLAND_COUNTY_JAIL.html"
  },
  {
    "Name": "DALLAS COUNTY JAIL - LEW STERRETT JUSTICE CENTER",
    "City": "Dallas",
    "State": "TX",
    "Zip": "75202",
    "DETLOC": "DALCOTX",
    "filename": "DALLAS_COUNTY_JAIL_-_LEW_STERRETT_JUSTICE_CENTER.html"
  },
  {
    "Name": "DENVER CONTRACT DETENTION FACILITY",
    "City": "Aurora",
    "State": "CO",
    "Zip": "80010",
    "DETLOC": "DENICDF",
    "filename": "DENVER_CONTRACT_DETENTION_FACILITY.html"
  },
  {
    "Name": "DODGE COUNTY JAIL",
    "City": "Juneau",
    "State": "WI",
    "Zip": "53039",
    "DETLOC": "DODGEWI",
    "filename": "DODGE_COUNTY_JAIL.html"
  },
  {
    "Name": "ELOY FEDERAL CONTRACT FACILITY",
    "City": "Eloy",
    "State": "AZ",
    "Zip": "85131",
    "DETLOC": "EAZ",
    "filename": "ELOY_FEDERAL_CONTRACT_FACILITY.html"
  },
  {
    "Name": "EDEN DETENTION CENTER",
    "City": "Eden",
    "State": "TX",
    "Zip": "76837",
    "DETLOC": "EDNDCTX",
    "filename": "EDEN_DETENTION_CENTER.html"
  },
  {
    "Name": "ELMORE COUNTY JAIL",
    "City": "Mountain Home",
    "State": "ID",
    "Zip": "83647",
    "DETLOC": "ELMORID",
    "filename": "ELMORE_COUNTY_JAIL.html"
  },
  {
    "Name": "EL VALLE DETENTION FACILITY",
    "City": "Raymondville",
    "State": "TX",
    "Zip": "78580",
    "DETLOC": "ELVDFTX",
    "filename": "EL_VALLE_DETENTION_FACILITY.html"
  },
  {
    "Name": "ELIZABETH CONTRACT DETENTION FACILITY",
    "City": "Elizabeth",
    "State": "NJ",
    "Zip": "07201",
    "DETLOC": "ELZICDF",
    "filename": "ELIZABETH_CONTRACT_DETENTION_FACILITY.html"
  },
  {
    "Name": "EL PASO SPC",
    "City": "El Paso",
    "State": "TX",
    "Zip": "79925",
    "DETLOC": "EPC",
    "filename": "EL_PASO_SPC.html"
  },
  {
    "Name": "FOLKSTON ANNEX IPC",
    "City": "Folkston",
    "State": "GA",
    "Zip": "31537",
    "DETLOC": "FIPCAGA",
    "filename": "FOLKSTON_ANNEX_IPC.html"
  },
  {
    "Name": "FOLKSTON MAIN IPC",
    "City": "Folkston",
    "State": "GA",
    "Zip": "31537",
    "DETLOC": "FIPCMGA",
    "filename": "FOLKSTON_MAIN_IPC.html"
  },
  {
    "Name": "FLORENCE SERVICE PROCESSING CENTER",
    "City": "Florence",
    "State": "AZ",
    "Zip": "85232",
    "DETLOC": "FLO",
    "filename": "FLORENCE_SERVICE_PROCESSING_CENTER.html"
  },
  {
    "Name": "FREEBORN COUNTY ADULT DETENTION CENTER",
    "City": "Albert Lea",
    "State": "MN",
    "Zip": "56007",
    "DETLOC": "FREEBMN",
    "filename": "FREEBORN_COUNTY_ADULT_DETENTION_CENTER.html"
  },
  {
    "Name": "ICA - FARMVILLE",
    "City": "Farmville",
    "State": "VA",
    "Zip": "23901",
    "DETLOC": "FRMVLVA",
    "filename": "ICA_-_FARMVILLE.html"
  },
  {
    "Name": "FLORENCE STAGING FACILITY",
    "City": "Florence",
    "State": "AZ",
    "Zip": "85232",
    "DETLOC": "FSF",
    "filename": "FLORENCE_STAGING_FACILITY.html"
  },
  {
    "Name": "GASTON COUNTY JAIL",
    "City": "Gastonia",
    "State": "NC",
    "Zip": "28052",
    "DETLOC": "GASTNNC",
    "filename": "GASTON_COUNTY_JAIL.html"
  },
  {
    "Name": "GEAUGA COUNTY JAIL",
    "City": "Chardon",
    "State": "OH",
    "Zip": "44024",
    "DETLOC": "GEAUGOH",
    "filename": "GEAUGA_COUNTY_JAIL.html"
  },
  {
    "Name": "GRAND FORKS COUNTY CORRECTIONAL FACILITY",
    "City": "Grand Forks",
    "State": "ND",
    "Zip": "58206",
    "DETLOC": "GFCORND",
    "filename": "GRAND_FORKS_COUNTY_CORRECTIONAL_FACILITY.html"
  },
  {
    "Name": "GOLDEN STATE ANNEX",
    "City": "Mcfarland",
    "State": "CA",
    "Zip": "93250",
    "DETLOC": "GLDSACA",
    "filename": "GOLDEN_STATE_ANNEX.html"
  },
  {
    "Name": "DEPARTMENT OF CORRECTIONS HAGATNA",
    "City": "Hagatna",
    "State": "GU",
    "Zip": "96910",
    "DETLOC": "GUDOCHG",
    "filename": "DEPARTMENT_OF_CORRECTIONS_HAGATNA.html"
  },
  {
    "Name": "HALL COUNTY DEPARTMENT OF CORRECTIONS",
    "City": "Grand Island",
    "State": "NE",
    "Zip": "68801",
    "DETLOC": "HASHENE",
    "filename": "HALL_COUNTY_DEPARTMENT_OF_CORRECTIONS.html"
  },
  {
    "Name": "HANCOCK CO PUB SFTY CPLX",
    "City": "Bay St. Louis",
    "State": "MS",
    "Zip": "39520",
    "DETLOC": "HCPSCMS",
    "filename": "HANCOCK_CO_PUB_SFTY_CPLX.html"
  },
  {
    "Name": "HENDERSON DETENTION",
    "City": "Henderson",
    "State": "NV",
    "Zip": "89015",
    "DETLOC": "HENDENV",
    "filename": "HENDERSON_DETENTION.html"
  },
  {
    "Name": "HOUSTON CONTRACT DETENTION FACILITY",
    "City": "Houston",
    "State": "TX",
    "Zip": "77032",
    "DETLOC": "HOUICDF",
    "filename": "HOUSTON_CONTRACT_DETENTION_FACILITY.html"
  },
  {
    "Name": "IMPERIAL REGIONAL DETENTION FACILITY",
    "City": "Calexico",
    "State": "CA",
    "Zip": "92231",
    "DETLOC": "IRADFCA",
    "filename": "IMPERIAL_REGIONAL_DETENTION_FACILITY.html"
  },
  {
    "Name": "JOE CORLEY PROCESSING CTR",
    "City": "Conroe",
    "State": "TX",
    "Zip": "77301",
    "DETLOC": "JCRLYTX",
    "filename": "JOE_CORLEY_PROCESSING_CTR.html"
  },
  {
    "Name": "CENTRAL LOUISIANA ICE PROCESSING CENTER (CLIPC)",
    "City": "Jena",
    "State": "LA",
    "Zip": "71342",
    "DETLOC": "JENADLA",
    "filename": "CENTRAL_LOUISIANA_ICE_PROCESSING_CENTER_(CLIPC).html"
  },
  {
    "Name": "ALEXANDRIA STAGING FACILITY",
    "City": "Alexandria",
    "State": "LA",
    "Zip": "71303",
    "DETLOC": "JENATLA",
    "filename": "ALEXANDRIA_STAGING_FACILITY.html"
  },
  {
    "Name": "JACKSON PARISH CORRECTIONAL CENTER",
    "City": "Jonesboro",
    "State": "LA",
    "Zip": "71251",
    "DETLOC": "JKPCCLA",
    "filename": "JACKSON_PARISH_CORRECTIONAL_CENTER.html"
  },
  {
    "Name": "KANDIYOHI COUNTY JAIL",
    "City": "Willmar",
    "State": "MN",
    "Zip": "56201",
    "DETLOC": "KANDIMN",
    "filename": "KANDIYOHI_COUNTY_JAIL.html"
  },
  {
    "Name": "KAY CO JUSTICE FACILITY",
    "City": "Newkirk",
    "State": "OK",
    "Zip": "74647",
    "DETLOC": "KCOJFOK",
    "filename": "KAY_CO_JUSTICE_FACILITY.html"
  },
  {
    "Name": "KNOX COUNTY DETENTION FACILITY",
    "City": "Knoxville",
    "State": "TN",
    "Zip": "37918",
    "DETLOC": "KNXDFTN",
    "filename": "KNOX_COUNTY_DETENTION_FACILITY.html"
  },
  {
    "Name": "KARNES COUNTY IMMIGRATION PROCESSING CENTER",
    "City": "Karnes City",
    "State": "TX",
    "Zip": "78118",
    "DETLOC": "KRNRCTX",
    "filename": "KARNES_COUNTY_IMMIGRATION_PROCESSING_CENTER.html"
  },
  {
    "Name": "KROME NORTH SERVICE PROCESSING CENTER",
    "City": "Miami",
    "State": "FL",
    "Zip": "33194",
    "DETLOC": "KRO",
    "filename": "KROME_NORTH_SERVICE_PROCESSING_CENTER.html"
  },
  {
    "Name": "WINN CORRECTIONAL CENTER",
    "City": "Winnfield",
    "State": "LA",
    "Zip": "71483",
    "DETLOC": "LAWINCI",
    "filename": "WINN_CORRECTIONAL_CENTER.html"
  },
  {
    "Name": "LEXINGTON COUNTY JAIL",
    "City": "Lexington",
    "State": "SC",
    "Zip": "29072",
    "DETLOC": "LEXINSC",
    "filename": "LEXINGTON_COUNTY_JAIL.html"
  },
  {
    "Name": "LIMESTONE COUNTY DETENTION CENTER",
    "City": "Groesbeck",
    "State": "TX",
    "Zip": "76642",
    "DETLOC": "LIMESTX",
    "filename": "LIMESTONE_COUNTY_DETENTION_CENTER.html"
  },
  {
    "Name": "LINN COUNTY JAIL",
    "City": "Cedar Rapids",
    "State": "IA",
    "Zip": "52401",
    "DETLOC": "LINNJIA",
    "filename": "LINN_COUNTY_JAIL.html"
  },
  {
    "Name": "LAREDO PROCESSING CENTER",
    "City": "Laredo",
    "State": "TX",
    "Zip": "78041",
    "DETLOC": "LRDICDF",
    "filename": "LAREDO_PROCESSING_CENTER.html"
  },
  {
    "Name": "MADISON COUNTY JAIL",
    "City": "Canton",
    "State": "MS",
    "Zip": "39046",
    "DETLOC": "MADISMS",
    "filename": "MADISON_COUNTY_JAIL.html"
  },
  {
    "Name": "MCLELLAN COUNTY JAIL",
    "City": "Waco",
    "State": "TX",
    "Zip": "76705",
    "DETLOC": "MCCLETX",
    "filename": "MCLELLAN_COUNTY_JAIL.html"
  },
  {
    "Name": "MILLER COUNTY JAIL",
    "City": "Texarkana",
    "State": "AR",
    "Zip": "71854",
    "DETLOC": "MILLRAR",
    "filename": "MILLER_COUNTY_JAIL.html"
  },
  {
    "Name": "MINICASSIA DETENTION CENTER",
    "City": "Burley",
    "State": "ID",
    "Zip": "83318",
    "DETLOC": "MINICID",
    "filename": "MINICASSIA_DETENTION_CENTER.html"
  },
  {
    "Name": "MONROE COUNTY DETENTION MAIN",
    "City": "Monroe",
    "State": "MI",
    "Zip": "48161",
    "DETLOC": "MNROEMI",
    "filename": "MONROE_COUNTY_DETENTION_MAIN.html"
  },
  {
    "Name": "MONROE COUNTY DETENTION-DORM",
    "City": "Monroe",
    "State": "MI",
    "Zip": "48161",
    "DETLOC": "MONROMI",
    "filename": "MONROE_COUNTY_DETENTION-DORM.html"
  },
  {
    "Name": "SAIPAN DEPARTMENT OF CORRECTIONS (SUSUPE)",
    "City": "Saipan",
    "State": "MP",
    "Zip": "96950",
    "DETLOC": "MPSIPAN",
    "filename": "SAIPAN_DEPARTMENT_OF_CORRECTIONS_(SUSUPE).html"
  },
  {
    "Name": "MOSHANNON VALLEY PROCESSING CENTER",
    "City": "Philipsburg",
    "State": "PA",
    "Zip": "16866",
    "DETLOC": "MSVPCPA",
    "filename": "MOSHANNON_VALLEY_PROCESSING_CENTER.html"
  },
  {
    "Name": "MONTGOMERY ICE PROCESSING CENTER",
    "City": "Conroe",
    "State": "TX",
    "Zip": "77301",
    "DETLOC": "MTGPCTX",
    "filename": "MONTGOMERY_ICE_PROCESSING_CENTER.html"
  },
  {
    "Name": "NEVADA SOUTHERN DETENTION CENTER",
    "City": "Pahrump",
    "State": "NV",
    "Zip": "89060",
    "DETLOC": "NVSDCNV",
    "filename": "NEVADA_SOUTHERN_DETENTION_CENTER.html"
  },
  {
    "Name": "NYE COUNTY SHERIFF-PAHRUMP",
    "City": "Pahrump",
    "State": "NV",
    "Zip": "89060",
    "DETLOC": "NYEPANV",
    "filename": "NYE_COUNTY_SHERIFF-PAHRUMP.html"
  },
  {
    "Name": "ORANGE COUNTY JAIL",
    "City": "Goshen",
    "State": "NY",
    "Zip": "10924",
    "DETLOC": "ORANGNY",
    "filename": "ORANGE_COUNTY_JAIL.html"
  },
  {
    "Name": "OTERO COUNTY DETENTION",
    "City": "Alamogordo",
    "State": "NM",
    "Zip": "88310",
    "DETLOC": "OTERONM",
    "filename": "OTERO_COUNTY_DETENTION.html"
  },
  {
    "Name": "OTERO COUNTY PROCESSING CENTER",
    "City": "Chaparral",
    "State": "NM",
    "Zip": "88081",
    "DETLOC": "OTRPCNM",
    "filename": "OTERO_COUNTY_PROCESSING_CENTER.html"
  },
  {
    "Name": "PICKENS COUNTY DET CTR",
    "City": "Carrollton",
    "State": "AL",
    "Zip": "35447",
    "DETLOC": "PCKNSAL",
    "filename": "PICKENS_COUNTY_DET_CTR.html"
  },
  {
    "Name": "PHELPS COUNTY JAIL",
    "City": "Holdrege",
    "State": "NE",
    "Zip": "68949",
    "DETLOC": "PHELPNE",
    "filename": "PHELPS_COUNTY_JAIL.html"
  },
  {
    "Name": "PORT ISABEL SPC",
    "City": "Los Fresnos",
    "State": "TX",
    "Zip": "78566",
    "DETLOC": "PIC",
    "filename": "PORT_ISABEL_SPC.html"
  },
  {
    "Name": "PIKE COUNTY CORRECTIONAL FACILITY",
    "City": "Lords Valley",
    "State": "PA",
    "Zip": "18428",
    "DETLOC": "PIKCOPA",
    "filename": "PIKE_COUNTY_CORRECTIONAL_FACILITY.html"
  },
  {
    "Name": "PINELLAS COUNTY JAIL",
    "City": "Clearwater",
    "State": "FL",
    "Zip": "33762",
    "DETLOC": "PINELFL",
    "filename": "PINELLAS_COUNTY_JAIL.html"
  },
  {
    "Name": "PINE PRAIRIE ICE PROCESSING CENTER",
    "City": "Pine Prairie",
    "State": "LA",
    "Zip": "70576",
    "DETLOC": "PINEPLA",
    "filename": "PINE_PRAIRIE_ICE_PROCESSING_CENTER.html"
  },
  {
    "Name": "PLYMOUTH COUNTY CORRECTIONAL FACILITY",
    "City": "Plymouth",
    "State": "MA",
    "Zip": "02360",
    "DETLOC": "PLYMOMA",
    "filename": "PLYMOUTH_COUNTY_CORRECTIONAL_FACILITY.html"
  },
  {
    "Name": "IAH SECURE ADULT DETENTION FACILITY (POLK)",
    "City": "Livingston",
    "State": "TX",
    "Zip": "77351",
    "DETLOC": "POLKCTX",
    "filename": "IAH_SECURE_ADULT_DETENTION_FACILITY_(POLK).html"
  },
  {
    "Name": "POLK COUNTY JAIL",
    "City": "Des Moines",
    "State": "IA",
    "Zip": "50313",
    "DETLOC": "POLKJIA",
    "filename": "POLK_COUNTY_JAIL.html"
  },
  {
    "Name": "POTTAWATTAMIE COUNTY JAIL",
    "City": "Council Bluffs",
    "State": "IA",
    "Zip": "51501",
    "DETLOC": "POTTAIA",
    "filename": "POTTAWATTAMIE_COUNTY_JAIL.html"
  },
  {
    "Name": "PRAIRIELAND DETENTION FACILITY",
    "City": "Alvarado",
    "State": "TX",
    "Zip": "76009",
    "DETLOC": "PRLDCTX",
    "filename": "PRAIRIELAND_DETENTION_FACILITY.html"
  },
  {
    "Name": "ROBERT A. DEYTON DETENTION FACILITY",
    "City": "Lovejoy",
    "State": "GA",
    "Zip": "30250",
    "filename": "ROBERT_A._DEYTON_DETENTION_FACILITY.html"
  },
  {
    "Name": "RIO GRANDE DETENTION CENTER",
    "City": "Laredo",
    "State": "TX",
    "Zip": "78046",
    "DETLOC": "RGRNDTX",
    "filename": "RIO_GRANDE_DETENTION_CENTER.html"
  },
  {
    "Name": "RANDALL COUNTY JAIL",
    "City": "Amarillo",
    "State": "TX",
    "Zip": "79118",
    "DETLOC": "RNDLLTX",
    "filename": "RANDALL_COUNTY_JAIL.html"
  },
  {
    "Name": "RIVER CORRECTIONAL CENTER",
    "City": "Ferriday",
    "State": "LA",
    "Zip": "71334",
    "DETLOC": "RVRCCLA",
    "filename": "RIVER_CORRECTIONAL_CENTER.html"
  },
  {
    "Name": "RICHWOOD CORRECTIONAL CENTER",
    "City": "Richwood",
    "State": "LA",
    "Zip": "71202",
    "DETLOC": "RWCCMLA",
    "filename": "RICHWOOD_CORRECTIONAL_CENTER.html"
  },
  {
    "Name": "SENECA COUNTY JAIL",
    "City": "Tiffin",
    "State": "OH",
    "Zip": "44883",
    "DETLOC": "SENECOH",
    "filename": "SENECA_COUNTY_JAIL.html"
  },
  {
    "Name": "SHERBURNE COUNTY JAIL",
    "City": "Elk River",
    "State": "MN",
    "Zip": "55330",
    "DETLOC": "SHERBMN",
    "filename": "SHERBURNE_COUNTY_JAIL.html"
  },
  {
    "Name": "SAN LUIS REGIONAL DETENTION CENTER",
    "City": "San Luis",
    "State": "AZ",
    "Zip": "85349",
    "DETLOC": "SLRDCAZ",
    "filename": "SAN_LUIS_REGIONAL_DETENTION_CENTER.html"
  },
  {
    "Name": "SALT LAKE COUNTY METRO JAIL",
    "City": "Salt Lake City",
    "State": "UT",
    "Zip": "84119",
    "DETLOC": "SLSLCUT",
    "filename": "SALT_LAKE_COUNTY_METRO_JAIL.html"
  },
  {
    "Name": "SOUTH TEXAS ICE PROCESSING CENTER",
    "City": "Pearsall",
    "State": "TX",
    "Zip": "78061",
    "DETLOC": "STCDFTX",
    "filename": "SOUTH_TEXAS_ICE_PROCESSING_CENTER.html"
  },
  {
    "Name": "SAINT CLAIR COUNTY JAIL",
    "City": "Port Huron",
    "State": "MI",
    "Zip": "48060",
    "DETLOC": "STCLAMI",
    "filename": "SAINT_CLAIR_COUNTY_JAIL.html"
  },
  {
    "Name": "SOUTH TEXAS FAM RESIDENTIAL CENTER",
    "City": "Dilley",
    "State": "TX",
    "Zip": "78017",
    "DETLOC": "STFRCTX",
    "filename": "SOUTH_TEXAS_FAM_RESIDENTIAL_CENTER.html"
  },
  {
    "Name": "STRAFFORD COUNTY CORRECTIONS",
    "City": "Dover",
    "State": "NH",
    "Zip": "03820",
    "DETLOC": "STRAFNH",
    "filename": "STRAFFORD_COUNTY_CORRECTIONS.html"
  },
  {
    "Name": "STEWART DETENTION CENTER",
    "City": "Lumpkin",
    "State": "GA",
    "Zip": "31815",
    "DETLOC": "STWRTGA",
    "filename": "STEWART_DETENTION_CENTER.html"
  },
  {
    "Name": "TRUSTED ADULT SOUTH TEX DILLEY FSC",
    "City": "Dilley",
    "State": "TX",
    "Zip": "78017",
    "DETLOC": "STFRCTX",
    "filename": "TRUSTED_ADULT_SOUTH_TEX_DILLEY_FSC.html"
  },
  {
    "Name": "TORRANCE COUNTY DETENTION FACILITY",
    "City": "Estancia",
    "State": "NM",
    "Zip": "87016",
    "DETLOC": "TOORANM",
    "filename": "TORRANCE_COUNTY_DETENTION_FACILITY.html"
  },
  {
    "Name": "TULSA COUNTY JAIL (DAVID L. MOSS JUSTICE CTR)",
    "City": "Tulsa",
    "State": "OK",
    "Zip": "74103",
    "DETLOC": "TULCOOK",
    "filename": "TULSA_COUNTY_JAIL_(DAVID_L._MOSS_JUSTICE_CTR).html"
  },
  {
    "Name": "CHITTENDEN REGIONAL CORRECTIONAL FACILITY",
    "City": "South Burlington",
    "State": "VT",
    "Zip": "05403",
    "DETLOC": "VTCHTDN",
    "filename": "CHITTENDEN_REGIONAL_CORRECTIONAL_FACILITY.html"
  },
  {
    "Name": "NORTHWEST STATE CORRECTIONAL CENTER",
    "City": "Swanton",
    "State": "VT",
    "Zip": "05488",
    "DETLOC": "VTSTALB",
    "filename": "NORTHWEST_STATE_CORRECTIONAL_CENTER.html"
  },
  {
    "Name": "NORTHWEST STATE CORRECTIONAL CENTER",
    "City": "Swanton",
    "State": "VT",
    "Zip": "05488",
    "DETLOC": "NWSCFVT",
    "filename": "NORTHWEST_STATE_CORRECTIONAL_CENTER.html"
  },
  {
    "Name": "WASHINGTON COUNTY DETENTION CENTER",
    "City": "Fayetteville",
    "State": "AR",
    "Zip": "72701",
    "DETLOC": "WASHIAR",
    "filename": "WASHINGTON_COUNTY_DETENTION_CENTER.html"
  },
  {
    "Name": "WASHOE COUNTY JAIL",
    "City": "Reno",
    "State": "NV",
    "Zip": "89512",
    "DETLOC": "WASHONV",
    "filename": "WASHOE_COUNTY_JAIL.html"
  },
  {
    "Name": "BROWARD TRANSITIONAL CENTER",
    "City": "Pompano Beach",
    "State": "FL",
    "Zip": "33073",
    "DETLOC": "WCCPBFL",
    "filename": "BROWARD_TRANSITIONAL_CENTER.html"
  },
  {
    "Name": "WEBB COUNTY DETENTION CENTER (CCA)",
    "City": "Laredo",
    "State": "TX",
    "Zip": "78046",
    "DETLOC": "WEBDCTX",
    "filename": "WEBB_COUNTY_DETENTION_CENTER_(CCA).html"
  },
  {
    "Name": "WESTERN VIRGINIA REGIONAL JAIL",
    "City": "Salem",
    "State": "VA",
    "Zip": "24153",
    "DETLOC": "WVIRGVA",
    "filename": "WESTERN_VIRGINIA_REGIONAL_JAIL.html"
  },
  {
    "Name": "SOUTH CENTRAL REGIONAL JAIL",
    "City": "Charleston",
    "State": "WV",
    "Zip": "25309",
    "DETLOC": "WVSCENT",
    "filename": "SOUTH_CENTRAL_REGIONAL_JAIL.html"
  },
  {
    "Name": "WYATT DETENTION CENTER",
    "City": "Central Falls",
    "State": "RI",
    "Zip": "02863",
    "DETLOC": "WYATTRI",
    "filename": "WYATT_DETENTION_CENTER.html"
  },
  {
    "Name": "OTAY MESA DETENTION CENTER",
    "City": "San Diego",
    "State": "CA",
    "Zip": "92154",
    "DETLOC": "CCASDCA",
    "filename": "OTAY_MESA_DETENTION_CENTER.html"
  },
  {
    "Name": "TORRANCE/ESTANCIA, NM",
    "City": "Estancia",
    "State": "NM",
    "Zip": "87016",
    "DETLOC": "TOORANM",
    "filename": "TORRANCE/ESTANCIA,_NM.html"
  },
  {
    "Name": "FINNEY COUNTY JAIL",
    "City": "Garden City",
    "State": "KS",
    "Zip": "67846",
    "DETLOC": "FINNEKS",
    "filename": "FINNEY_COUNTY_JAIL.html"
  },
  {
    "Name": "ORANGE COUNTY JAIL",
    "City": "Orlando",
    "State": "FL",
    "Zip": "32839",
    "DETLOC": "ORANGFL",
    "filename": "ORANGE_COUNTY_JAIL.html"
  },
  {
    "Name": "YELLOWSTONE COUNTY JAIL",
    "City": "Billings",
    "State": "MT",
    "Zip": "59101",
    "DETLOC": "YELLOMT",
    "filename": "YELLOWSTONE_COUNTY_JAIL.html"
  },
  {
    "Name": "TELLER COUNTY JAIL",
    "City": "Divide",
    "State": "CO",
    "Zip": "80814",
    "DETLOC": "TELLECO",
    "filename": "TELLER_COUNTY_JAIL.html"
  },
  {
    "Name": "BERGEN COUNTY JAIL",
    "City": "Hackensack",
    "State": "NJ",
    "Zip": "07601",
    "DETLOC": "BERGENJ",
    "filename": "BERGEN_COUNTY_JAIL.html"
  },
  {
    "Name": "CATAHOULA CORRECTIONAL CENTER",
    "City": "Harrisonburg",
    "State": "LA",
    "Zip": "71430",
    "DETLOC": "CATAHLA",
    "filename": "CATAHOULA_CORRECTIONAL_CENTER.html"
  },
  {
    "Name": "DALE G. HAILE DETENTION CENTER",
    "City": "Caldwell",
    "State": "ID",
    "Zip": "83605",
    "DETLOC": "HAILEID",
    "filename": "DALE_G._HAILE_DETENTION_CENTER.html"
  },
  {
    "Name": "LUBBOCK COUNTY DETENTION CENTER",
    "City": "Lubbock",
    "State": "TX",
    "Zip": "79401",
    "DETLOC": "LUBBOTX",
    "filename": "LUBBOCK_COUNTY_DETENTION_CENTER.html"
  },
  {
    "Name": "SWEETWATER COUNTY JAIL",
    "City": "Rock Springs",
    "State": "WY",
    "Zip": "82901",
    "DETLOC": "SWEETWY",
    "filename": "SWEETWATER_COUNTY_JAIL.html"
  },
  {
    "Name": "CLINTON COUNTY JAIL",
    "City": "Plattsburgh",
    "State": "NY",
    "Zip": "12901",
    "DETLOC": "CLICONY",
    "filename": "CLINTON_COUNTY_JAIL.html"
  },
  {
    "Name": "FAYETTE COUNTY DETENTION CENTER",
    "City": "Lexington",
    "State": "KY",
    "Zip": "40510",
    "DETLOC": "FAYETKY",
    "filename": "FAYETTE_COUNTY_DETENTION_CENTER.html"
  },
  {
    "Name": "GREENTREE INN HOUSTON IAH",
    "City": "Houston",
    "State": "TX",
    "Zip": "77032",
    "filename": "GREENTREE_INN_HOUSTON_IAH.html"
  },
  {
    "Name": "JEFFERSON COUNTY JAIL",
    "City": "Rigby",
    "State": "ID",
    "Zip": "83442",
    "DETLOC": "JEFFEID",
    "filename": "JEFFERSON_COUNTY_JAIL.html"
  },
  {
    "Name": "MIDLAND COUNTY DETENTION CENTER",
    "City": "Midland",
    "State": "TX",
    "Zip": "79701",
    "DETLOC": "MIDLATX",
    "filename": "MIDLAND_COUNTY_DETENTION_CENTER.html"
  },
  {
    "Name": "SAN JUAN STAGING",
    "City": "Guaynabo",
    "State": "PR",
    "Zip": "00965",
    "DETLOC": "SJS",
    "filename": "SAN_JUAN_STAGING.html"
  },
  {
    "Name": "ST. CLAIR COUNTY JAIL",
    "City": "Port Huron",
    "State": "MI",
    "Zip": "48060",
    "DETLOC": "STCLAMI",
    "filename": "ST._CLAIR_COUNTY_JAIL.html"
  },
  {
    "Name": "WOODBURY COUNTY JAIL",
    "City": "Sioux City",
    "State": "IA",
    "Zip": "51101",
    "DETLOC": "WOODBIA",
    "filename": "WOODBURY_COUNTY_JAIL.html"
  },
  {
    "Name": "DAKOTA COUNTY JAIL",
    "City": "Dakota City",
    "State": "NE",
    "Zip": "68731",
    "DETLOC": "DAKOTNE",
    "filename": "DAKOTA_COUNTY_JAIL.html"
  },
  {
    "Name": "ELIZABETH CONTRACT D.F.",
    "City": "Elizabeth",
    "State": "NJ",
    "Zip": "07201",
    "DETLOC": "ELZICDF",
    "filename": "ELIZABETH_CONTRACT_D.F..html"
  },
  {
    "Name": "ESSEX COUNTY CORRECTIONAL FACILITY",
    "City": "Newark",
    "State": "NJ",
    "Zip": "07105",
    "DETLOC": "ESSEXNJ",
    "filename": "ESSEX_COUNTY_CORRECTIONAL_FACILITY.html"
  },
  {
    "Name": "ETOWAH COUNTY JAIL (ALABAMA)",
    "City": "Gadsden",
    "State": "AL",
    "Zip": "35901",
    "DETLOC": "ETOWAAL",
    "filename": "ETOWAH_COUNTY_JAIL_(ALABAMA).html"
  },
  {
    "Name": "LA PAZ COUNTY ADULT DETENTION FACILITY",
    "City": "Parker",
    "State": "AZ",
    "Zip": "85344",
    "DETLOC": "LAPAZAZ",
    "filename": "LA_PAZ_COUNTY_ADULT_DETENTION_FACILITY.html"
  },
  {
    "Name": "MCLENNAN COUNTY JAIL",
    "City": "Waco",
    "State": "TX",
    "Zip": "76705",
    "DETLOC": "MCCLETX",
    "filename": "MCLENNAN_COUNTY_JAIL.html"
  },
  {
    "Name": "NEW HANOVER COUNTY JAIL",
    "City": "Castle Hayne",
    "State": "NC",
    "Zip": "28429",
    "DETLOC": "NWHNVNC",
    "filename": "NEW_HANOVER_COUNTY_JAIL.html"
  },
  {
    "Name": "ROCKINGHAM COUNTY JAIL",
    "City": "Harrisonburg",
    "State": "VA",
    "Zip": "22801",
    "DETLOC": "ROCKIVA",
    "filename": "ROCKINGHAM_COUNTY_JAIL.html"
  },
  {
    "Name": "WASHINGTON COUNTY JAIL",
    "City": "Stillwater",
    "State": "MN",
    "Zip": "55082",
    "DETLOC": "WAJAIMN",
    "filename": "WASHINGTON_COUNTY_JAIL.html"
  },
  {
    "Name": "GOOSE CREEK CORRECTIONAL",
    "City": "Wasilla",
    "State": "AK",
    "Zip": "99654",
    "DETLOC": "AKGSCCC",
    "filename": "GOOSE_CREEK_CORRECTIONAL.html"
  },
  {
    "Name": "ALEXANDRIA CITY JAIL",
    "City": "Alexandria",
    "State": "VA",
    "Zip": "22314",
    "DETLOC": "ALEXAVA",
    "filename": "ALEXANDRIA_CITY_JAIL.html"
  },
  {
    "Name": "KARNES COUNTY CORRECTIONAL CENTER",
    "City": "Karnes City",
    "State": "TX",
    "Zip": "78118",
    "DETLOC": "KARNETX",
    "filename": "KARNES_COUNTY_CORRECTIONAL_CENTER.html"
  },
  {
    "Name": "SEBASTIAN COUNTY DETENTION CENTER",
    "City": "Fort Smith",
    "State": "AR",
    "Zip": "72901",
    "DETLOC": "SEBASAR",
    "filename": "SEBASTIAN_COUNTY_DETENTION_CENTER.html"
  },
  {
    "Name": "TITUS COUNTY JAIL",
    "City": "Mt. Pleasant",
    "State": "TX",
    "Zip": "75455",
    "DETLOC": "TITUSTX",
    "filename": "TITUS_COUNTY_JAIL.html"
  },
  {
    "Name": "WEBB COUNTY DETENTION CENTER (CCA)",
    "City": "Laredo",
    "State": "TX",
    "Zip": "78041",
    "DETLOC": "WEBDCTX",
    "filename": "WEBB_COUNTY_DETENTION_CENTER_(CCA).html"
  },
  {
    "Name": "EAST HIDALGO DETENTION CENTER",
    "City": "La Villa",
    "State": "TX",
    "Zip": "78562",
    "DETLOC": "EHDLGTX",
    "filename": "EAST_HIDALGO_DETENTION_CENTER.html"
  },
  {
    "Name": "FLORENCE SPC",
    "City": "Florence",
    "State": "AZ",
    "Zip": "85132",
    "DETLOC": "FLO",
    "filename": "FLORENCE_SPC.html"
  },
  {
    "Name": "FLOYD COUNTY JAIL",
    "City": "Rome",
    "State": "GA",
    "Zip": "30161",
    "DETLOC": "FLOYDGA",
    "filename": "FLOYD_COUNTY_JAIL.html"
  },
  {
    "Name": "OLDHAM COUNTY JAIL",
    "City": "La Grange",
    "State": "KY",
    "Zip": "40031",
    "DETLOC": "OLDHAKY",
    "filename": "OLDHAM_COUNTY_JAIL.html"
  },
  {
    "Name": "PENNINGTON COUNTY JAIL (SOUTH DAKOTA)",
    "City": "Rapid City",
    "State": "SD",
    "Zip": "57701",
    "DETLOC": "PENNISD",
    "filename": "PENNINGTON_COUNTY_JAIL_(SOUTH_DAKOTA).html"
  },
  {
    "Name": "EDEN DETENTION CTR",
    "City": "Eden",
    "State": "TX",
    "Zip": "76837",
    "DETLOC": "EDNDCTX",
    "filename": "EDEN_DETENTION_CTR.html"
  },
  {
    "Name": "ROBERT A DEYTON DETENTION",
    "City": "Lovejoy",
    "State": "GA",
    "Zip": "30250",
    "DETLOC": "RADDFGA",
    "filename": "ROBERT_A_DEYTON_DETENTION.html"
  },
  {
    "Name": "CLINTON COUNTY CORRECTIONAL FACILITY",
    "City": "Mcelhattan",
    "State": "PA",
    "Zip": "17748",
    "DETLOC": "CLINTPA",
    "filename": "CLINTON_COUNTY_CORRECTIONAL_FACILITY.html"
  },
  {
    "Name": "GRAYSON COUNTY JAIL",
    "City": "Leitchfield",
    "State": "KY",
    "Zip": "42754",
    "DETLOC": "GRAYSKY",
    "filename": "GRAYSON_COUNTY_JAIL.html"
  },
  {
    "Name": "HANCOCK COUNTY PUBLIC SAFETY COMPLEX",
    "City": "Bay St. Louis",
    "State": "MS",
    "Zip": "39520",
    "DETLOC": "HCPSCMS",
    "filename": "HANCOCK_COUNTY_PUBLIC_SAFETY_COMPLEX.html"
  },
  {
    "Name": "CLINTON COUNTY JAIL***",
    "City": "Plattsburgh",
    "State": "NY",
    "Zip": "12901",
    "DETLOC": "CLICONY",
    "filename": "CLINTON_COUNTY_JAIL***.html"
  },
  {
    "Name": "DALLAS COUNTY JAIL - LEW STERRETT JUSTICE CENTER***",
    "City": "Dallas",
    "State": "TX",
    "Zip": "75202",
    "DETLOC": "DALCOTX",
    "filename": "DALLAS_COUNTY_JAIL_-_LEW_STERRETT_JUSTICE_CENTER***.html"
  },
  {
    "Name": "PRINCE EDWARD COUNTY (FARMVILLE)",
    "City": "Farmville",
    "State": "VA",
    "Zip": "23901",
    "DETLOC": "FRMVLVA",
    "filename": "PRINCE_EDWARD_COUNTY_(FARMVILLE).html"
  },
  {
    "Name": "JEFFERSON COUNTY JAIL***",
    "City": "Rigby",
    "State": "ID",
    "Zip": "83442",
    "DETLOC": "JEFFEID",
    "filename": "JEFFERSON_COUNTY_JAIL***.html"
  },
  {
    "Name": "SAIPAN DEPARTMENT OF CORRECTIONS (SUSPE)",
    "City": "Saipan",
    "State": "MP",
    "Zip": "96950",
    "filename": "SAIPAN_DEPARTMENT_OF_CORRECTIONS_(SUSPE).html"
  },
  {
    "Name": "SAN LUIS REGIONAL DETENTION CENTER***",
    "City": "San Luis",
    "State": "AZ",
    "Zip": "85349",
    "DETLOC": "SLRDCAZ",
    "filename": "SAN_LUIS_REGIONAL_DETENTION_CENTER***.html"
  },
  {
    "Name": "BAKER COUNTY SHERIFF DEPT.",
    "City": "Macclenny",
    "State": "FL",
    "Zip": "32063",
    "DETLOC": "BAKERFL",
    "filename": "BAKER_COUNTY_SHERIFF_DEPT..html"
  },
  {
    "Name": "CCA, FLORENCE CORRECTIONAL CENTER",
    "City": "Florence",
    "State": "AZ",
    "Zip": "85132",
    "DETLOC": "CCAFLAZ",
    "filename": "CCA,_FLORENCE_CORRECTIONAL_CENTER.html"
  },
  {
    "Name": "CHIPPEWA CO., SSM",
    "City": "Sault Ste Marie",
    "State": "MI",
    "Zip": "49783",
    "DETLOC": "CHIPPMI",
    "filename": "CHIPPEWA_CO.,_SSM.html"
  },
  {
    "Name": "CLAY COUNTY JUSTICE CENTER",
    "City": "Brazil",
    "State": "IN",
    "Zip": "47834",
    "DETLOC": "CLAYCIN",
    "filename": "CLAY_COUNTY_JUSTICE_CENTER.html"
  },
  {
    "Name": "CLINTON COUNTY CORR. FAC.",
    "City": "Mcelhattan",
    "State": "PA",
    "Zip": "17748",
    "DETLOC": "CLINTPA",
    "filename": "CLINTON_COUNTY_CORR._FAC..html"
  },
  {
    "Name": "COASTAL BEND DET. FACILITY",
    "City": "Robstown",
    "State": "TX",
    "Zip": "78380",
    "DETLOC": "CBENDTX",
    "filename": "COASTAL_BEND_DET._FACILITY.html"
  },
  {
    "Name": "DEPTARTMENT OF CORRECTIONS HAGATNA",
    "City": "Hagatna",
    "State": "GU",
    "Zip": "96910",
    "DETLOC": "GUDOCHG",
    "filename": "DEPTARTMENT_OF_CORRECTIONS_HAGATNA.html"
  },
  {
    "Name": "DODGE COUNTY JAIL, JUNEAU",
    "City": "Juneau",
    "State": "WI",
    "Zip": "53039",
    "DETLOC": "DODGEWI",
    "filename": "DODGE_COUNTY_JAIL,_JUNEAU.html"
  },
  {
    "Name": "FREEBORN COUNTY JAIL, MN",
    "City": "Albert Lea",
    "State": "MN",
    "Zip": "56007",
    "DETLOC": "FREEBMN",
    "filename": "FREEBORN_COUNTY_JAIL,_MN.html"
  },
  {
    "Name": "GEAUGA COUNTY JAIL (GEAUGOH)",
    "City": "Chardon",
    "State": "OH",
    "Zip": "44024",
    "DETLOC": "GEAUGOH",
    "filename": "GEAUGA_COUNTY_JAIL_(GEAUGOH).html"
  },
  {
    "Name": "KANDIYOHI CO. JAIL",
    "City": "Willmar",
    "State": "MN",
    "Zip": "56201",
    "DETLOC": "KANDIMN",
    "filename": "KANDIYOHI_CO._JAIL.html"
  },
  {
    "Name": "KARNES CO IMMIGRATION PROCESS CTR",
    "City": "Karnes City",
    "State": "TX",
    "Zip": "78118",
    "DETLOC": "KRNRCTX",
    "filename": "KARNES_CO_IMMIGRATION_PROCESS_CTR.html"
  },
  {
    "Name": "LIMESTONE DET CENTER",
    "City": "Groesbeck",
    "State": "TX",
    "Zip": "76642",
    "DETLOC": "LIMESTX",
    "filename": "LIMESTONE_DET_CENTER.html"
  },
  {
    "Name": "MONTGOMERY PROCESSING CTR",
    "City": "Conroe",
    "State": "TX",
    "Zip": "77301",
    "DETLOC": "MTGPCTX",
    "filename": "MONTGOMERY_PROCESSING_CTR.html"
  },
  {
    "Name": "OTERO CO PROCESSING CENTER",
    "City": "Chaparral",
    "State": "NM",
    "Zip": "88081",
    "DETLOC": "OTRPCNM",
    "filename": "OTERO_CO_PROCESSING_CENTER.html"
  },
  {
    "Name": "PIKE COUNTY JAIL",
    "City": "Lords Valley",
    "State": "PA",
    "Zip": "18428",
    "DETLOC": "PIKCOPA",
    "filename": "PIKE_COUNTY_JAIL.html"
  },
  {
    "Name": "PLYMOUTH CO COR FACILTY",
    "City": "Plymouth",
    "State": "MA",
    "Zip": "02360",
    "DETLOC": "PLYMOMA",
    "filename": "PLYMOUTH_CO_COR_FACILTY.html"
  },
  {
    "Name": "PRAIRIELAND DETENTION CENTER",
    "City": "Alvarado",
    "State": "TX",
    "Zip": "76009",
    "DETLOC": "PRLDCTX",
    "filename": "PRAIRIELAND_DETENTION_CENTER.html"
  },
  {
    "Name": "RICHWOOD COR CENTER",
    "City": "Monroe",
    "State": "LA",
    "Zip": "71202",
    "DETLOC": "RWCCMLA",
    "filename": "RICHWOOD_COR_CENTER.html"
  },
  {
    "Name": "ROBERT A DEYTON DETENTION FAC",
    "City": "Lovejoy",
    "State": "GA",
    "Zip": "30250",
    "DETLOC": "RADDFGA",
    "filename": "ROBERT_A_DEYTON_DETENTION_FAC.html"
  },
  {
    "Name": "SAIPAN DEPARTMENT OF CORR",
    "City": "Saipan",
    "State": "MP",
    "Zip": "96950",
    "DETLOC": "MPSIPAN",
    "filename": "SAIPAN_DEPARTMENT_OF_CORR.html"
  },
  {
    "Name": "SOUTH LOUISIANA ICE PROCESSING CENTER",
    "City": "Basile",
    "State": "LA",
    "Zip": "70515",
    "DETLOC": "BASILLA",
    "filename": "SOUTH_LOUISIANA_ICE_PROCESSING_CENTER.html"
  },
  {
    "Name": "STRAFFORD CO DEPT OF CORR",
    "City": "Dover",
    "State": "NH",
    "Zip": "03820",
    "DETLOC": "STRAFNH",
    "filename": "STRAFFORD_CO_DEPT_OF_CORR.html"
  },
  {
    "Name": "WASHOE COUNTY JAIL",
    "City": "Reno",
    "State": "NV",
    "Zip": "89506",
    "DETLOC": "WASHONV",
    "filename": "WASHOE_COUNTY_JAIL.html"
  },
  {
    "Name": "BUFFALO SERVICE PROCESSING CENTER",
    "City": "Batavia",
    "State": "NY",
    "Zip": "14020",
    "DETLOC": "BTV",
    "filename": "BUFFALO_SERVICE_PROCESSING_CENTER.html"
  },
  {
    "Name": "EL PASO SERVICE PROCESSING CENTER",
    "City": "El Paso",
    "State": "TX",
    "Zip": "79925",
    "DETLOC": "EPC",
    "filename": "EL_PASO_SERVICE_PROCESSING_CENTER.html"
  },
  {
    "Name": "FLORENCE SERVICE PROCESSING CENTER",
    "City": "Florence",
    "State": "AZ",
    "Zip": "85132",
    "DETLOC": "FLO",
    "filename": "FLORENCE_SERVICE_PROCESSING_CENTER.html"
  },
  {
    "Name": "CHIPPEWA COUNTY SSM",
    "City": "Sault Ste Marie",
    "State": "MI",
    "Zip": "49783",
    "DETLOC": "CHIPPMI",
    "filename": "CHIPPEWA_COUNTY_SSM.html"
  },
  {
    "Name": "RICHWOOD CORRECTIONAL CENTER",
    "City": "Monroe",
    "State": "LA",
    "Zip": "71202",
    "DETLOC": "RWCCMLA",
    "filename": "RICHWOOD_CORRECTIONAL_CENTER.html"
  },
  {
    "Name": "ROBERT A DEYTON DETENTION FACILITY",
    "City": "Lovejoy",
    "State": "GA",
    "Zip": "30250",
    "DETLOC": "RADDFGA",
    "filename": "ROBERT_A_DEYTON_DETENTION_FACILITY.html"
  },
  {
    "Name": "LINCOLN COUNTY SHERIFF'S",
    "City": "Troy",
    "State": "MO",
    "Zip": "63379",
    "DETLOC": "LINCOMO",
    "filename": "LINCOLN_COUNTY_SHERIFF'S.html"
  },
  {
    "Name": "ORANGE COUNTY JAIL (FL)",
    "City": "Orlando",
    "State": "FL",
    "Zip": "32839",
    "DETLOC": "ORANGFL",
    "filename": "ORANGE_COUNTY_JAIL_(FL).html"
  },
  {
    "Name": "ORANGE COUNTY JAIL (NY)",
    "City": "Goshen",
    "State": "NY",
    "Zip": "10924",
    "DETLOC": "ORANGNY",
    "filename": "ORANGE_COUNTY_JAIL_(NY).html"
  },
  {
    "Name": "NORTHWEST ICE PROCSESING CENTER",
    "City": "Tacoma",
    "State": "WA",
    "Zip": "98421",
    "DETLOC": "CSCNWWA",
    "filename": "NORTHWEST_ICE_PROCSESING_CENTER.html"
  },
  {
    "Name": "PLATTE COUNTY JAIL",
    "City": "Wheatland",
    "State": "WY",
    "Zip": "82201",
    "DETLOC": "PLATTWY",
    "filename": "PLATTE_COUNTY_JAIL.html"
  },
  {
    "Name": "NORTHWEST ICE PROCESSSING CENTER",
    "City": "Tacoma",
    "State": "WA",
    "Zip": "98421",
    "DETLOC": "CSCNWWA",
    "filename": "NORTHWEST_ICE_PROCESSSING_CENTER.html"
  },
  {
    "Name": "ST. JOHN'S COUNTY JAIL",
    "City": "St. Augustine",
    "State": "FL",
    "Zip": "32084",
    "DETLOC": "STJONFL",
    "filename": "ST._JOHN'S_COUNTY_JAIL.html"
  },
  {
    "Name": "SWEETWATER COUNTY JAIL",
    "City": "Rock Springs",
    "State": "WY",
    "Zip": "82935",
    "DETLOC": "SWEETWY",
    "filename": "SWEETWATER_COUNTY_JAIL.html"
  },
  {
    "Name": "CLINTON COUNTY CORRECTIONAL",
    "City": "Mcelhattan",
    "State": "PA",
    "Zip": "17748",
    "DETLOC": "CLINTPA",
    "filename": "CLINTON_COUNTY_CORRECTIONAL.html"
  },
  {
    "Name": "BROWARD COUNTY JAIL",
    "City": "Ft.lauderdale",
    "State": "FL",
    "Zip": "33301",
    "DETLOC": "BROJAFL",
    "filename": "BROWARD_COUNTY_JAIL.html"
  },
  {
    "Name": "ATLANTA US PEN",
    "City": "Atlanta",
    "State": "GA",
    "Zip": "30315",
    "DETLOC": "BOPATL",
    "filename": "ATLANTA_US_PEN.html"
  },
  {
    "Name": "FDC PHILADELPHIA",
    "City": "Philadelphia",
    "State": "PA",
    "Zip": "19106",
    "DETLOC": "BOPPHL",
    "filename": "FDC_PHILADELPHIA.html"
  },
  {
    "Name": "GRAND FORKS COUNTY CORRECTIONAL FACILITY",
    "City": "Grand Forks",
    "State": "ND",
    "Zip": "58203",
    "DETLOC": "GFCORND",
    "filename": "GRAND_FORKS_COUNTY_CORRECTIONAL_FACILITY.html"
  },
  {
    "Name": "JTF CAMP SIX",
    "City": "Fpo",
    "State": "FL",
    "Zip": "34009",
    "DETLOC": "GTMODCU",
    "filename": "JTF_CAMP_SIX.html"
  },
  {
    "Name": "LEAVENWORTH US PENITENTIARY",
    "City": "Leavenworth",
    "State": "KS",
    "Zip": "66048",
    "DETLOC": "BOPLVN",
    "filename": "LEAVENWORTH_US_PENITENTIARY.html"
  },
  {
    "Name": "MARION COUNTY JAIL",
    "City": "Indianapolis",
    "State": "IN",
    "Zip": "46204",
    "DETLOC": "MARIOIN",
    "filename": "MARION_COUNTY_JAIL.html"
  },
  {
    "Name": "MIAMI FEDERAL DETENTION",
    "City": "Miami",
    "State": "FL",
    "Zip": "33132",
    "DETLOC": "BOPMIM",
    "filename": "MIAMI_FEDERAL_DETENTION.html"
  },
  {
    "Name": "MIGRANT OPS CENTER MAIN A",
    "City": "Fpo",
    "State": "FL",
    "Zip": "34009",
    "DETLOC": "GTMOACU",
    "filename": "MIGRANT_OPS_CENTER_MAIN_A.html"
  },
  {
    "Name": "ERIE COUNTY JAIL",
    "City": "Erie",
    "State": "PA",
    "Zip": "16503",
    "DETLOC": "ERICOPA",
    "filename": "ERIE_COUNTY_JAIL.html"
  },
  {
    "Name": "GREENE COUNTY JAIL",
    "City": "Springfield",
    "State": "MO",
    "Zip": "65802",
    "DETLOC": "GREENMO",
    "filename": "GREENE_COUNTY_JAIL.html"
  },
  {
    "Name": "LA SALLE COUNTY REGIONAL DETENTION CENTER",
    "City": "Encinal",
    "State": "TX",
    "Zip": "78019",
    "DETLOC": "LSRDCTX",
    "filename": "LA_SALLE_COUNTY_REGIONAL_DETENTION_CENTER.html"
  },
  {
    "Name": "NASSAU COUNTY CORRECTIONAL CENTER",
    "City": "East Meadow",
    "State": "NY",
    "Zip": "11554",
    "DETLOC": "NASSANY",
    "filename": "NASSAU_COUNTY_CORRECTIONAL_CENTER.html"
  },
  {
    "Name": "NORTHEAST OHIO CORRECTIONAL CENTER",
    "City": "Youngstown",
    "State": "OH",
    "Zip": "44505",
    "DETLOC": "CCANOOH",
    "filename": "NORTHEAST_OHIO_CORRECTIONAL_CENTER.html"
  },
  {
    "Name": "ALLEGANY COUNTY JAIL",
    "City": "Belmont",
    "State": "NY",
    "Zip": "14813",
    "DETLOC": "ALLEGNY",
    "filename": "ALLEGANY_COUNTY_JAIL.html"
  },
  {
    "Name": "BERLIN FED. CORR. INST.",
    "City": "Berlin",
    "State": "NH",
    "Zip": "03570",
    "DETLOC": "BOPBER",
    "filename": "BERLIN_FED._CORR._INST..html"
  },
  {
    "Name": "BUTLER COUNTY JAIL",
    "City": "Hamilton",
    "State": "OH",
    "Zip": "45011",
    "DETLOC": "BUTLEOH",
    "filename": "BUTLER_COUNTY_JAIL.html"
  },
  {
    "Name": "CIMMARRON CORR FACILITY",
    "City": "Cushing",
    "State": "OK",
    "Zip": "74023",
    "DETLOC": "OKCIMMC",
    "filename": "CIMMARRON_CORR_FACILITY.html"
  },
  {
    "Name": "EL PASO SOFT SIDED FACILI",
    "City": "El Paso",
    "State": "TX",
    "Zip": "79934",
    "DETLOC": "EPSSFTX",
    "filename": "EL_PASO_SOFT_SIDED_FACILI.html"
  },
  {
    "Name": "LINCOLN COUNTY JAIL",
    "City": "North Platte",
    "State": "NE",
    "Zip": "69101",
    "DETLOC": "LINCONE",
    "filename": "LINCOLN_COUNTY_JAIL.html"
  },
  {
    "Name": "MIAMI STAGING FACILITY",
    "City": "Miami",
    "State": "FL",
    "Zip": "33101",
    "DETLOC": "MSF",
    "filename": "MIAMI_STAGING_FACILITY.html"
  },
  {
    "Name": "STE. GENEVIEVE COUNTY SHERIFF/JAIL",
    "City": "Ste. Genevieve",
    "State": "MO",
    "Zip": "63670",
    "DETLOC": "STGENMO",
    "filename": "STE._GENEVIEVE_COUNTY_SHERIFF/JAIL.html"
  },
  {
    "Name": "TWO BRIDGES REGIONAL JAIL",
    "City": "Wiscasset",
    "State": "ME",
    "Zip": "04578",
    "DETLOC": "TBRJLME",
    "filename": "TWO_BRIDGES_REGIONAL_JAIL.html"
  },
  {
    "Name": "BROOME COUNTY JAIL",
    "City": "Binghampton",
    "State": "NY",
    "Zip": "13905",
    "DETLOC": "BROMMNY",
    "filename": "BROOME_COUNTY_JAIL.html"
  },
  {
    "Name": "CAMPBELL CO DET CTR",
    "City": "Newport",
    "State": "KY",
    "Zip": "41071",
    "DETLOC": "CPBDCKY",
    "filename": "CAMPBELL_CO_DET_CTR.html"
  },
  {
    "Name": "CORR. CTR OF NORTHWEST OHIO",
    "City": "Stryker",
    "State": "OH",
    "Zip": "43557",
    "DETLOC": "OHNORWE",
    "filename": "CORR._CTR_OF_NORTHWEST_OHIO.html"
  },
  {
    "Name": "EL PASO SOFT SIDED FACILITY",
    "City": "El Paso",
    "State": "TX",
    "Zip": "79934",
    "DETLOC": "EPSSFTX",
    "filename": "EL_PASO_SOFT_SIDED_FACILITY.html"
  },
  {
    "Name": "PHELPS COUNTY JAIL",
    "City": "Rolla",
    "State": "MO",
    "Zip": "65401",
    "DETLOC": "PHELPMO",
    "filename": "PHELPS_COUNTY_JAIL.html"
  },
  {
    "Name": "DILLEY IMMIGRATION PROCESSING CENTER",
    "City": "Dilley",
    "State": "TX",
    "Zip": "78017",
    "DETLOC": "STFRCTX",
    "filename": "DILLEY_IMMIGRATION_PROCESSING_CENTER.html"
  },
  {
    "Name": "GLADES COUNTY DETENTION CENTER",
    "City": "Moore Haven",
    "State": "FL",
    "Zip": "33471",
    "DETLOC": "GLADEFL",
    "filename": "GLADES_COUNTY_DETENTION_CENTER.html"
  },
  {
    "Name": "PHELPS COUNTY JAIL (MO)",
    "City": "Rolla",
    "State": "MO",
    "Zip": "65401",
    "DETLOC": "PHELPMO",
    "filename": "PHELPS_COUNTY_JAIL_(MO).html"
  },
  {
    "Name": "PHELPS COUNTY JAIL (NE)",
    "City": "Holdrege",
    "State": "NE",
    "Zip": "68949",
    "DETLOC": "PHELPNE",
    "filename": "PHELPS_COUNTY_JAIL_(NE).html"
  },
  {
    "Name": "CLARK COUNTY JAIL (IN)",
    "City": "Jeffersonville",
    "State": "IN",
    "Zip": "47130",
    "DETLOC": "CLARKIN",
    "filename": "CLARK_COUNTY_JAIL_(IN).html"
  },
  {
    "Name": "LAUREL COUNTY SHERIFFS JAIL",
    "City": "London",
    "State": "KY",
    "Zip": "40741",
    "DETLOC": "LAURELKY",
    "filename": "LAUREL_COUNTY_SHERIFFS_JAIL.html"
  },
  {
    "Name": "MAHONING COUNTY JAIL",
    "City": "Youngstown",
    "State": "OH",
    "Zip": "44503",
    "DETLOC": "MAHONOH",
    "filename": "MAHONING_COUNTY_JAIL.html"
  },
  {
    "Name": "MUSCATINE COUNTY JAIL",
    "City": "Muscatine",
    "State": "IA",
    "Zip": "52761",
    "DETLOC": "MUSCAIA",
    "filename": "MUSCATINE_COUNTY_JAIL.html"
  },
  {
    "Name": "PICKENS COUNTY",
    "City": "Carrollton",
    "State": "AL",
    "Zip": "35447",
    "DETLOC": "PCKNSAL",
    "filename": "PICKENS_COUNTY.html"
  },
  {
    "Name": "CASS COUNTY JAIL",
    "City": "Plattsmouth",
    "State": "NE",
    "Zip": "68048",
    "DETLOC": "CASSCNE",
    "filename": "CASS_COUNTY_JAIL.html"
  },
  {
    "Name": "DELANEY HALL DETENTION FACILITY",
    "City": "Newark",
    "State": "NJ",
    "Zip": "07105",
    "DETLOC": "DHDFNJ",
    "filename": "DELANEY_HALL_DETENTION_FACILITY.html"
  },
  {
    "Name": "HARDIN COUNTY JAIL",
    "City": "Eldora",
    "State": "IA",
    "Zip": "50627",
    "DETLOC": "HARDJIA",
    "filename": "HARDIN_COUNTY_JAIL.html"
  },
  {
    "Name": "HOPKINS COUNTY JAIL",
    "City": "Madisonville",
    "State": "KY",
    "Zip": "42431",
    "DETLOC": "HPKNSKY",
    "filename": "HOPKINS_COUNTY_JAIL.html"
  },
  {
    "Name": "PUTNAM COUNTY SHERIFF",
    "City": "Cookeville",
    "State": "TN",
    "Zip": "38501",
    "DETLOC": "PUTNMTN",
    "filename": "PUTNAM_COUNTY_SHERIFF.html"
  },
  {
    "Name": "WALTON COUNTY JAIL",
    "City": "Defuniak Springs",
    "State": "FL",
    "Zip": "32433",
    "DETLOC": "WLTSOFL",
    "filename": "WALTON_COUNTY_JAIL.html"
  },
  {
    "Name": "KENTON COUNTY JAIL",
    "City": "Covington",
    "State": "KY",
    "Zip": "41011",
    "DETLOC": "KENTOKY",
    "filename": "KENTON_COUNTY_JAIL.html"
  },
  {
    "Name": "CLINTON COUNTY JAIL",
    "City": "Frankfort",
    "State": "IN",
    "Zip": "46041",
    "DETLOC": "CLINTIN",
    "filename": "CLINTON_COUNTY_JAIL.html"
  },
  {
    "Name": "OZARK COUNTY SHERIFF'S OFFICE",
    "City": "Gainesville",
    "State": "MO",
    "Zip": "65655",
    "DETLOC": "OZARKMO",
    "filename": "OZARK_COUNTY_SHERIFF'S_OFFICE.html"
  },
  {
    "Name": "SARPY COUNTY JAIL",
    "City": "Papillion",
    "State": "NE",
    "Zip": "68046",
    "DETLOC": "SARPYNE",
    "filename": "SARPY_COUNTY_JAIL.html"
  },
  {
    "Name": "DORCHESTER CO DET CTR",
    "City": "Summerville",
    "State": "SC",
    "Zip": "29483",
    "DETLOC": "DORCDSC",
    "filename": "DORCHESTER_CO_DET_CTR.html"
  },
  {
    "Name": "ROCKINGHAM COUNTY JAIL",
    "City": "Brentwood",
    "State": "NH",
    "Zip": "03833",
    "DETLOC": "ROCKINH",
    "filename": "ROCKINGHAM_COUNTY_JAIL.html"
  },
  {
    "Name": "NIAGARA COUNTY JAIL",
    "City": "Lockport",
    "State": "NY",
    "Zip": "14094",
    "DETLOC": "NIAGANY",
    "filename": "NIAGARA_COUNTY_JAIL.html"
  },
  {
    "Name": "WAUKESHA COUNTY JAIL",
    "City": "Waukesha",
    "State": "WI",
    "Zip": "53186",
    "DETLOC": "WAUKEWI",
    "filename": "WAUKESHA_COUNTY_JAIL.html"
  },
  {
    "Name": "BOURBON CO DET CENTER",
    "City": "Paris",
    "State": "KY",
    "Zip": "40361",
    "DETLOC": "BOURBKY",
    "filename": "BOURBON_CO_DET_CENTER.html"
  },
  {
    "Name": "BROWN COUNTY JAIL",
    "City": "Green Bay",
    "State": "WI",
    "Zip": "54311",
    "filename": "BROWN_COUNTY_JAIL.html"
  },
  {
    "Name": "SCOTT COUNTY DET. FACILITY",
    "City": "Davenport",
    "State": "IA",
    "Zip": "52801",
    "DETLOC": "SCOTTIA",
    "filename": "SCOTT_COUNTY_DET._FACILITY.html"
  },
  {
    "Name": "GARVIN COUNTY DETENTION CENTER",
    "City": "Pauls Valley",
    "State": "OK",
    "Zip": "73075",
    "DETLOC": "GARVIOK",
    "filename": "GARVIN_COUNTY_DETENTION_CENTER.html"
  },
  {
    "Name": "WICHITA COUNTY JAIL",
    "City": "Wichita Falls",
    "State": "TX",
    "Zip": "76302",
    "DETLOC": "WICHTTX",
    "filename": "WICHITA_COUNTY_JAIL.html"
  },
  {
    "Name": "NATRONA COUNTY JAIL",
    "City": "Casper",
    "State": "WY",
    "Zip": "82601",
    "DETLOC": "NATROWY",
    "filename": "NATRONA_COUNTY_JAIL.html"
  },
  {
    "Name": "CHAVEZ DETENTION CENTER",
    "City": "Roswell",
    "State": "NM",
    "Zip": "88201",
    "DETLOC": "CHAVENM",
    "filename": "CHAVEZ_DETENTION_CENTER.html"
  },
  {
    "Name": "BELL COUNTY JAIL",
    "City": "Belton",
    "State": "TX",
    "Zip": "76513",
    "DETLOC": "BELCOTX",
    "filename": "BELL_COUNTY_JAIL.html"
  },
  {
    "Name": "VICTORIA COUNTY JAIL",
    "City": "Victoria",
    "State": "TX",
    "Zip": "77901",
    "DETLOC": "VICTOTX",
    "filename": "VICTORIA_COUNTY_JAIL.html"
  },
  {
    "Name": "LAKE COUNTY JAIL",
    "City": "Tavares",
    "State": "FL",
    "Zip": "32778",
    "DETLOC": "LAKCOFL",
    "filename": "LAKE_COUNTY_JAIL.html"
  },
  {
    "Name": "NORTHERN REGIONAL JAIL",
    "City": "Moundsville",
    "State": "WV",
    "Zip": "26041",
    "DETLOC": "WVNORTH",
    "filename": "NORTHERN_REGIONAL_JAIL.html"
  },
  {
    "Name": "FRANKLIN COUNTY JAIL",
    "City": "Chambersburg",
    "State": "PA",
    "Zip": "17201",
    "filename": "FRANKLIN_COUNTY_JAIL.html"
  },
  {
    "Name": "ANCHORAGE CORRECTIONAL COMPLEX",
    "City": "Anchorage",
    "State": "AK",
    "Zip": "99501",
    "DETLOC": "ANCHOAK",
    "filename": "ANCHORAGE_CORRECTIONAL_COMPLEX.html"
  },
  {
    "Name": "CLARK COUNTY JAIL (ID)",
    "City": "Dubois",
    "State": "ID",
    "Zip": "47130",
    "DETLOC": "CLARKID",
    "filename": "CLARK_COUNTY_JAIL_(ID).html"
  },
  {
    "Name": "BURNET COUNTY JAIL",
    "City": "Burnet",
    "State": "TX",
    "Zip": "78611",
    "DETLOC": "BURNETX",
    "filename": "BURNET_COUNTY_JAIL.html"
  },
  {
    "Name": "WILSON COUNTY JAIL",
    "City": "Floresville",
    "State": "TX",
    "Zip": "78114",
    "DETLOC": "WILSOTX",
    "filename": "WILSON_COUNTY_JAIL.html"
  },
  {
    "Name": "BURLEIGH COUNTY",
    "City": "Bismarck",
    "State": "ND",
    "Zip": "58502",
    "DETLOC": "BURLEND",
    "filename": "BURLEIGH_COUNTY.html"
  },
  {
    "Name": "MINNEHAHA COUNTY JAIL",
    "City": "Sioux Falls",
    "State": "SD",
    "Zip": "57104",
    "DETLOC": "MINNESD",
    "filename": "MINNEHAHA_COUNTY_JAIL.html"
  },
  {
    "Name": "CLARKE COUNTY SHERIFF",
    "City": "Osceola",
    "State": "IA",
    "Zip": "50213",
    "DETLOC": "CLARKIA",
    "filename": "CLARKE_COUNTY_SHERIFF.html"
  },
  {
    "Name": "NORTHWEST REGIONAL CORRECTIONS CENTER",
    "City": "Crookston",
    "State": "MN",
    "Zip": "56716",
    "DETLOC": "NWRCCMN",
    "filename": "NORTHWEST_REGIONAL_CORRECTIONS_CENTER.html"
  },
  {
    "Name": "NORTHWESTERN REGIONAL JUVENILE DETENTION CENTER",
    "City": "Winchester",
    "State": "VA",
    "Zip": "22603",
    "DETLOC": "NRJDCVA",
    "filename": "NORTHWESTERN_REGIONAL_JUVENILE_DETENTION_CENTER.html"
  },
  {
    "Name": "BROOKLYN MDC",
    "City": "Brooklyn",
    "State": "NY",
    "Zip": "11232",
    "DETLOC": "BOPBRO",
    "filename": "BROOKLYN_MDC.html"
  },
  {
    "Name": "BROOME COUNTY JAIL",
    "City": "Binghamton",
    "State": "NY",
    "Zip": "13905",
    "DETLOC": "BROMMNY",
    "filename": "BROOME_COUNTY_JAIL.html"
  },
  {
    "Name": "ALEXANDRIA STAGING FACILI",
    "City": "Alexandria",
    "State": "LA",
    "Zip": "71303",
    "DETLOC": "JENATLA",
    "filename": "ALEXANDRIA_STAGING_FACILI.html"
  },
  {
    "Name": "KENTON COUNTY JAIL",
    "City": "Covington",
    "State": "KY",
    "Zip": "41017",
    "DETLOC": "KENTOKY",
    "filename": "KENTON_COUNTY_JAIL.html"
  },
  {
    "Name": "LAUREL COUNTY CORRECTIONAL CENTER",
    "City": "London",
    "State": "KY",
    "Zip": "40744",
    "DETLOC": "LAURELKY",
    "filename": "LAUREL_COUNTY_CORRECTIONAL_CENTER.html"
  },
  {
    "Name": "MARION COUNTY JAIL",
    "City": "Indianapolis",
    "State": "IN",
    "Zip": "46203",
    "DETLOC": "MARIOIN",
    "filename": "MARION_COUNTY_JAIL.html"
  },
  {
    "Name": "MONTGOMERY COUNTY JAIL",
    "City": "Fonda",
    "State": "NY",
    "Zip": "12068",
    "DETLOC": "MONTGNY",
    "filename": "MONTGOMERY_COUNTY_JAIL.html"
  },
  {
    "Name": "NORTH LAKE CORRECTIONAL F",
    "City": "Baldwin",
    "State": "MI",
    "Zip": "49304",
    "DETLOC": "NRLKCMI",
    "filename": "NORTH_LAKE_CORRECTIONAL_F.html"
  },
  {
    "Name": "OLDHAM COUNTY DETENTION CENTER",
    "City": "La Grange",
    "State": "KY",
    "Zip": "40031",
    "DETLOC": "OLDHAKY",
    "filename": "OLDHAM_COUNTY_DETENTION_CENTER.html"
  },
  {
    "Name": "SAUK COUNTY SHERIFF",
    "City": "Baraboo",
    "State": "WI",
    "Zip": "53913",
    "DETLOC": "SAUKWI",
    "filename": "SAUK_COUNTY_SHERIFF.html"
  },
  {
    "Name": "TOOELE COUNTY JAIL",
    "City": "Tooele",
    "State": "UT",
    "Zip": "84074",
    "DETLOC": "TOOELUT",
    "filename": "TOOELE_COUNTY_JAIL.html"
  },
  {
    "Name": "UINTA COUNTY JAIL",
    "City": "Evanston",
    "State": "WY",
    "Zip": "82930",
    "DETLOC": "UINTAWY",
    "filename": "UINTA_COUNTY_JAIL.html"
  },
  {
    "Name": "WASHINGTON COUNTY JAIL (PURGATORY CORRECTIONAL FAC",
    "City": "Hurricane",
    "State": "UT",
    "Zip": "84737",
    "DETLOC": "WASHCUT",
    "filename": "WASHINGTON_COUNTY_JAIL_(PURGATORY_CORRECTIONAL_FAC.html"
  }
]